APRIZESAT 2             
1 28366U 04025A   16032.78812566  .00000084  00000-0  40343-4 0  9991
2 28366  98.3376 316.4612 0108977 110.1355 251.1596 14.36523775607605
SAUDICOMSAT 1           
1 28369U 04025D   16033.46209028  .00000187  00000-0  56407-4 0  9995
2 28369  98.1261 353.4636 0034691 126.7514 233.6875 14.52214107614110
SAUDICOMSAT 2           
1 28370U 04025E   16032.62705060  .00000171  00000-0  58126-4 0  9994
2 28370  98.2404 343.0346 0056862 239.6385 119.9178 14.47178135611910
APRIZESAT 1             
1 28372U 04025G   16033.11807302  .00000103  00000-0  38036-4 0  9996
2 28372  98.1898 347.5635 0046313 184.0388 176.0439 14.49392849612988
NANOSAT-1               
1 28493U 04049B   16033.19904686  .00000255  00000-0  47868-4 0  9998
2 28493  98.2700  89.5502 0005272 144.0611 216.0952 14.73096183597161
SAUDICOMSAT 7           
1 31119U 07012C   16033.13512785  .00000179  00000-0  44438-4 0  9994
2 31119  97.8807  11.6221 0059834 199.3050 160.5885 14.61411173468779
SAUDICOMSAT 6           
1 31121U 07012E   16033.12771302  .00000194  00000-0  50484-4 0  9993
2 31121  97.9445   2.4133 0075578 253.9231 105.3638 14.58221266467772
SAUDICOMSAT 5           
1 31124U 07012H   16033.50464673  .00000235  00000-0  53823-4 0  9994
2 31124  97.8460  17.6512 0052056 171.1833 189.0297 14.63082758469336
SAUDICOMSAT 3           
1 31125U 07012J   16032.78024475  .00000281  00000-0  60469-4 0  9991
2 31125  97.8131  22.8860 0044278 147.7593 212.6332 14.64778824469740
SAUDICOMSAT 4           
1 31127U 07012L   16033.17054861  .00000187  00000-0  47384-4 0  9995
2 31127  97.9112   7.2891 0067310 224.9959 134.5777 14.59926996468304
APRIZESAT 4             
1 35684U 09041D   16033.38795898  .00000352  00000-0  54668-4 0  9993
2 35684  98.0866 325.8872 0046133 271.0636 203.6524 14.78802333351114
APRIZESAT 3             
1 35686U 09041F   16033.15766215  .00000390  00000-0  48768-4 0  9997
2 35686  98.2298   6.9846 0073164 200.9173 158.9045 14.86735597352731
AISSAT 1                
1 36797U 10035C   16033.36075716  .00000699  00000-0  87557-4 0  9999
2 36797  98.0133 137.1649 0011301 184.1522 175.9600 14.85395541300947
